STARLINK-31605          
1 59348U 24060A   25032.99055333 -.00000380  00000+0 -18258-5 0  9991
2 59348  43.0045   7.7721 0002597 283.7926  76.2642 15.40692794 48658
STARLINK-31605          
1 59348U 24060A   25033.31470666 -.00000410  00000+0 -25550-5 0  9995
2 59348  43.0045   5.9027 0001940 275.3662  84.6973 15.40679389 48703
STARLINK-31605          
1 59348U 24060A   25033.31470666 -.00000410  00000+0 -25550-5 0  9995
2 59348  43.0045   5.9027 0001940 275.3662  84.6973 15.40679389 48714
STARLINK-31605          
1 59348U 24060A   25033.96298658  .00000654  00000+0  22925-4 0  9995
2 59348  43.0049   2.1693 0001519 255.4834 104.5854 15.40690303 48807
STARLINK-31605          
1 59348U 24060A   25033.96298658  .00000654  00000+0  22925-4 0  9995
2 59348  43.0049   2.1693 0001519 255.4834 104.5854 15.40690303 48818
STARLINK-31605          
1 59348U 24060A   25034.35195062  .00002847  00000+0  75375-4 0  9997
2 59348  43.0014 359.9279 0000545 220.1443 139.9373 15.40700076 48868
STARLINK-31605          
1 59348U 24060A   25034.35195062  .00002847  00000+0  75375-4 0  9997
2 59348  43.0014 359.9279 0000545 220.1443 139.9373 15.40700076 48879
STARLINK-31605          
1 59348U 24060A   25034.93541794  .00001771  00000+0  49668-4 0  9999
2 59348  43.0043 356.5647 0001061 237.9399 122.1355 15.40680689 48953
STARLINK-31605          
1 59348U 24060A   25035.25956779  .00001343  00000+0  39448-4 0  9998
2 59348  43.0082 354.7032 0002432 297.7292  62.3318 15.40681316 49013
STARLINK-31605          
1 59348U 24060A   25036.23198370 -.00001882  00000+0 -37767-4 0  9994
2 59348  43.0079 349.0982 0001596 272.0596  88.0078 15.40715404 49152
STARLINK-31605          
1 59348U 24060A   25036.55612930  .00003947  00000+0  10171-3 0  9993
2 59348  43.0110 347.2289 0001781 289.4522  70.6142 15.40696740 49212
STARLINK-31605          
1 59348U 24060A   25036.88027520  .00002676  00000+0  71321-4 0  9997
2 59348  43.0055 345.3646 0001776 283.9276  76.1383 15.40697184 49250
STARLINK-31605          
1 59348U 24060A   25036.88027520  .00002676  00000+0  71321-4 0  9997
2 59348  43.0055 345.3646 0001776 283.9276  76.1383 15.40697184 49261
STARLINK-31605          
1 59348U 24060A   25037.20442618  .00000804  00000+0  26528-4 0  9993
2 59348  43.0081 343.4964 0001643 280.1745  79.8926 15.40693814 49309
STARLINK-31605          
1 59348U 24060A   25038.24168502  .00001996  00000+0  55041-4 0  9990
2 59348  43.0068 337.5198 0001338 280.7820  79.2886 15.40693246 49463
STARLINK-31605          
1 59348U 24060A   25038.24168502  .00001996  00000+0  55041-4 0  9990
2 59348  43.0068 337.5198 0001338 280.7820  79.2886 15.40693246 49474
STARLINK-31605          
1 59348U 24060A   25039.14927756  .00004067  00000+0  10456-3 0  9996
2 59348  43.0029 332.2928 0001131 264.7637  95.3090 15.40700241 49608
STARLINK-31605          
1 59348U 24060A   25039.14927756  .00004067  00000+0  10456-3 0  9996
2 59348  43.0029 332.2928 0001131 264.7637  95.3090 15.40700241 49619
STARLINK-31605          
1 59348U 24060A   25040.12171707 -.00003571  00000+0 -78223-4 0  9991
2 59348  43.0044 326.6908 0001711 272.5219  87.5441 15.40708563 49751
STARLINK-31605          
1 59348U 24060A   25040.51068714 -.00002779  00000+0 -59257-4 0  9992
2 59348  43.0045 324.4500 0001445 277.6637  82.4055 15.40707834 49823
STARLINK-31605          
1 59348U 24060A   25041.48313320  .00012686  00000+0  31087-3 0  9991
2 59348  43.0049 318.8455 0000997 279.5492  80.5252 15.40658947 49967
STARLINK-31605          
1 59348U 24060A   25041.48313320  .00012686  00000+0  31087-3 0  9991
2 59348  43.0049 318.8455 0000997 279.5492  80.5252 15.40658947 49978
STARLINK-31605          
1 59348U 24060A   25042.13142359 -.00001331  00000+0 -24605-4 0  9992
2 59348  43.0032 315.1130 0001657 291.7813  68.2867 15.40679900 50066
STARLINK-31605          
1 59348U 24060A   25042.45555281  .00000746  00000+0  25134-4 0  9994
2 59348  43.0022 313.2456 0001833 283.1313  76.9339 15.40697968 50111
STARLINK-31605          
1 59348U 24060A   25042.45555281  .00000746  00000+0  25134-4 0  9994
2 59348  43.0022 313.2456 0001833 283.1313  76.9339 15.40697968 50122
STARLINK-31605          
1 59348U 24060A   25043.10383435  .00000046  00000+0  83585-5 0  9995
2 59348  43.0026 309.5071 0001666 279.5773  80.4896 15.40709854 50216
STARLINK-31605          
1 59348U 24060A   25043.42798394 -.00000337  00000+0 -80796-6 0  9991
2 59348  43.0020 307.6399 0001510 288.6533  71.4160 15.40699292 50268
STARLINK-31605          
1 59348U 24060A   25043.42798394 -.00000337  00000+0 -80796-6 0  9991
2 59348  43.0020 307.6399 0001510 288.6533  71.4160 15.40699292 50279
STARLINK-31605          
1 59348U 24060A   25044.14110361  .00003386  00000+0  88318-4 0  9994
2 59348  43.0023 303.5326 0001147 304.6971  55.3777 15.40688479 50379
STARLINK-31605          
1 59348U 24060A   25044.40041337  .00001990  00000+0  54862-4 0  9995
2 59348  42.9962 302.0414 0000822 316.3678  43.7114 15.40704085 50417
STARLINK-31605          
1 59348U 24060A   25044.40041337  .00001990  00000+0  54862-4 0  9995
2 59348  42.9962 302.0414 0000822 316.3678  43.7114 15.40704085 50428
STARLINK-31605          
1 59348U 24060A   25044.91903751  .00007363  00000+0  18339-3 0  9996
2 59348  43.0002 299.0515 0002068 282.5407  77.5218 15.40694579 50505
STARLINK-31605          
1 59348U 24060A   25045.04869474  .00002397  00000+0  64625-4 0  9996
2 59348  43.0030 298.3035 0001620 291.9849  68.0835 15.40702027 50522
STARLINK-31605          
1 59348U 24060A   25045.95629486 -.00000496  00000+0 -45947-5 0  9990
2 59348  43.0001 293.0744 0001796 263.5786  96.4866 15.40701024 50668
STARLINK-31605          
1 59348U 24060A   25046.08595162  .00000504  00000+0  19342-4 0  9995
2 59348  43.0015 292.3269 0001705 261.9930  98.0734 15.40703714 50671
STARLINK-31605          
1 59348U 24060A   25046.08595162  .00000504  00000+0  19342-4 0  9995
2 59348  43.0015 292.3269 0001705 261.9930  98.0734 15.40703714 50682
STARLINK-31605          
1 59348U 24060A   25046.92872116  .00002846  00000+0  75365-4 0  9993
2 59348  43.0011 287.4707 0001718 260.8652  99.2010 15.40705247 50811
STARLINK-31605          
1 59348U 24060A   25047.38252555  .00000545  00000+0  20299-4 0  9993
2 59348  42.9998 284.8557 0001024 272.2664  87.8075 15.40696118 50873
STARLINK-31605          
1 59348U 24060A   25047.38252555  .00000545  00000+0  20299-4 0  9993
2 59348  42.9998 284.8557 0001024 272.2664  87.8075 15.40696118 50884
STARLINK-31605          
1 59348U 24060A   25048.03082372 -.00000536  00000+0 -55808-5 0  9991
2 59348  43.0016 281.1175 0001084 247.0864 112.9878 15.40686592 50977
STARLINK-31605          
1 59348U 24060A   25048.35495861  .00000705  00000+0  24134-4 0  9990
2 59348  43.0019 279.2530 0001349 262.7948  97.2755 15.40699160 51025
STARLINK-31605          
1 59348U 24060A   25048.35495861  .00000705  00000+0  24134-4 0  9990
2 59348  43.0019 279.2530 0001349 262.7948  97.2755 15.40699160 51036
STARLINK-31605          
1 59348U 24060A   25049.32737917 -.00001045  00000+0 -17736-4 0  9999
2 59348  43.0003 273.6533 0001536 280.1870  79.8813 15.40713257 51176
STARLINK-31605          
1 59348U 24060A   25049.32737917 -.00001045  00000+0 -17736-4 0  9999
2 59348  43.0003 273.6533 0001536 280.1870  79.8813 15.40713257 51187
STARLINK-31605          
1 59348U 24060A   25049.91084366  .00000437  00000+0  17728-4 0  9990
2 59348  43.0016 270.2886 0001634 277.2216  82.8455 15.40700756 51260
STARLINK-31605          
1 59348U 24060A   25050.29981614  .00001019  00000+0  31667-4 0  9990
2 59348  43.0034 268.0475 0001614 278.7096  81.3578 15.40702400 51335
STARLINK-31605          
1 59348U 24060A   25050.88327655  .00000611  00000+0  21896-4 0  9994
2 59348  43.0053 264.6848 0001547 272.9183  87.1497 15.40697310 51427
STARLINK-31605          
1 59348U 24060A   25051.01293515  .00000293  00000+0  14296-4 0  9999
2 59348  43.0037 263.9380 0001708 273.7225  86.3436 15.40696469 51436
STARLINK-31605          
1 59348U 24060A   25051.27225127 -.00000199  00000+0  25001-5 0  9994
2 59348  43.0023 262.4455 0001833 268.6975  91.3671 15.40694805 51486
STARLINK-31605          
1 59348U 24060A   25051.85571028  .00007881  00000+0  19593-3 0  9993
2 59348  43.0031 259.0816 0000692 286.4272  73.6509 15.40669850 51573
STARLINK-31605          
1 59348U 24060A   25051.98536138  .00001311  00000+0  38629-4 0  9994
2 59348  43.0012 258.3371 0001271 274.2228  85.8484 15.40702287 51580
STARLINK-31605          
1 59348U 24060A   25051.98536138  .00001311  00000+0  38629-4 0  9994
2 59348  43.0012 258.3371 0001271 274.2228  85.8484 15.40702287 51591
STARLINK-31605          
1 59348U 24060A   25052.82813298  .00005820  00000+0  14654-3 0  9993
2 59348  42.9997 253.4810 0000915 244.6431 115.4331 15.40686549 51713
STARLINK-31605          
1 59348U 24060A   25052.82813298  .00005820  00000+0  14654-3 0  9993
2 59348  42.9997 253.4810 0000915 244.6431 115.4331 15.40686549 51724
STARLINK-31605          
1 59348U 24060A   25053.60607518  .00000707  00000+0  24186-4 0  9997
2 59348  43.0027 248.9970 0001848 261.8524  98.2123 15.40702300 51840
STARLINK-31605          
1 59348U 24060A   25053.80057232 -.00001271  00000+0 -23181-4 0  9994
2 59348  42.9998 247.8754 0001661 240.9140 119.1550 15.40688299 51867
STARLINK-31605          
1 59348U 24060A   25053.80057232 -.00001271  00000+0 -23181-4 0  9994
2 59348  42.9998 247.8754 0001661 240.9140 119.1550 15.40688299 51878
STARLINK-31605          
1 59348U 24060A   25054.57851022  .00000511  00000+0  19506-4 0  9998
2 59348  43.0028 243.3964 0001510 258.0471 102.0216 15.40697189 51988
STARLINK-31605          
1 59348U 24060A   25054.90265372  .00000517  00000+0  19645-4 0  9992
2 59348  43.0039 241.5289 0001670 258.9032 101.1637 15.40697531 52045
STARLINK-31605          
1 59348U 24060A   25055.55093008  .00003969  00000+0  10222-3 0  9994
2 59348  43.0050 237.7952 0001992 269.8908  90.1720 15.40702750 52132
